XRISM                   
1 57800U 23137A   24061.86005668  .00004418  00000+0  34219-3 0  9996
2 57800  31.0045 335.0431 0010240 227.6786 132.2981 14.99776873 26475
